     2.100          NAVIGATION                              RINEX VERSION / TYPE
fic2rin                                 08/15/2011 00:08:58 PGM / RUN BY / DATE
                                                            END OF HEADER
31 11  8 14 14  0  0.0  .126283150166D-03  .568434188608D-11  .000000000000D+00
     .470000000000D+02  .104312500000D+03  .419446043040D-08  .303538667650D+01
     .555813312531D-05  .760234962218D-02  .800751149654D-05  .515371645927D+04
     .504000000000D+05  .428408384323D-07  .782243376171D+00  .195577740669D-06
     .980098520123D+00  .235000000000D+03 -.951501467730D+00 -.782104006343D-08
     .374658463172D-09  .100000000000D+01  .164900000000D+04  .000000000000D+00
     .240000000000D+01  .000000000000D+00 -.130385160446D-07  .470000000000D+02
     .432060000000D+05  .400000000000D+01
32 11  8 14 14  0  0.0 -.310408417135D-03 -.693489710102D-11  .000000000000D+00
     .760000000000D+02 -.255000000000D+02  .494449167221D-08 -.253826217480D+01
    -.101141631603D-05  .121773545397D-01  .421516597271D-05  .515359494591D+04
     .504000000000D+05 -.726431608200D-07 -.123631995099D+01  .186264514923D-06
     .953761525482D+00  .292250000000D+03 -.753213199084D+00 -.822641409174D-08
    -.108575951196D-09  .100000000000D+01  .164900000000D+04  .000000000000D+00
     .240000000000D+01  .000000000000D+00 -.279396772385D-08  .760000000000D+02
     .432060000000D+05  .400000000000D+01
 8 11  8 14 13 59 44.0  .884290784597D-05  .113686837722D-12  .000000000000D+00
     .170000000000D+02  .117406250000D+03  .388301888618D-08  .256287281639D+01
     .608712434769D-05  .119066504994D-01  .800751149654D-05  .515357759666D+04
     .503840000000D+05 -.240281224251D-06  .857800417825D+00  .577419996262D-07
     .996713720464D+00  .245812500000D+03 -.305913080245D+01 -.770067790700D-08
     .489663253583D-09  .100000000000D+01  .164900000000D+04  .000000000000D+00
     .240000000000D+01  .000000000000D+00 -.419095158577D-08  .170000000000D+02
     .494460000000D+05  .400000000000D+01
 8 11  8 14 15 59 44.0  .884383916855D-05  .113686837722D-12  .000000000000D+00
     .180000000000D+02  .116156250000D+03  .377122851538D-08 -.267008791876D+01
     .594928860664D-05  .119062819285D-01  .808015465736D-05  .515357825661D+04
     .575840000000D+05 -.154599547386D-06  .857745267276D+00 -.745058059692D-07
     .996717731786D+00  .248968750000D+03 -.305912098919D+01 -.762281752095D-08
     .519307345521D-09  .100000000000D+01  .164900000000D+04  .000000000000D+00
     .240000000000D+01  .000000000000D+00 -.419095158577D-08  .180000000000D+02
     .504060000000D+05  .400000000000D+01
 1 11  8 14 16  0  0.0 -.729924067855D-05  .125055521494D-11  .000000000000D+00
     .102000000000D+03  .508437500000D+02  .419660337680D-08  .272662862728D+01
     .267662107944D-05  .288409995846D-03  .956282019615D-05  .518035862350D+04
     .576000000000D+05 -.838190317154D-07 -.238044897267D+01 -.800937414169D-07
     .960357641699D+00  .191781250000D+03  .237219962882D+01 -.761674583947D-08
     .400016662300D-09  .100000000000D+01  .164900000000D+04  .000000000000D+00
     .340000000000D+01  .630000000000D+02  .791624188423D-08  .102000000000D+03
     .504060000000D+05  .400000000000D+01
 2 11  8 14 16  0  0.0  .351300928742D-03  .170530256582D-11  .000000000000D+00
     .101000000000D+03  .505312500000D+02  .497234997548D-08 -.715759592363D+00
     .254809856415D-05  .104075414129D-01  .963732600212D-05  .515379776764D+04
     .576000000000D+05  .337138772011D-06 -.238796434711D+01 -.763684511185D-07
     .938981295471D+00  .184875000000D+03 -.295186241914D+01 -.829141679936D-08
     .453233164695D-09  .100000000000D+01  .164900000000D+04  .000000000000D+00
     .240000000000D+01  .000000000000D+00 -.172294676304D-07  .101000000000D+03
     .504060000000D+05  .400000000000D+01
 3 11  8 14 16  0  0.0  .754823442549D-03  .488853402203D-11  .000000000000D+00
     .530000000000D+02 -.870937500000D+02  .525379027002D-08 -.531862865172D+00
    -.448711216450D-05  .146464349236D-01  .854767858982D-05  .515367343521D+04
     .576000000000D+05 -.145286321640D-06  .273650669049D+01  .191852450371D-06
     .929679503489D+00  .196625000000D+03  .111946567262D+01 -.868679041112D-08
    -.415731602604D-09  .100000000000D+01  .164900000000D+04  .000000000000D+00
     .340000000000D+01  .000000000000D+00 -.465661287308D-08  .530000000000D+02
     .504060000000D+05  .400000000000D+01
 4 11  8 14 16  0  0.0  .201346352696D-03  .110276232590D-10  .000000000000D+00
     .190000000000D+02  .535312500000D+02  .493127683605D-08  .252573401939D+01
     .259466469288D-05  .967107142787D-02  .976026058197D-05  .515369134331D+04
     .576000000000D+05  .931322574615D-08 -.237070691257D+01 -.121071934700D-06
     .938049355212D+00  .179437500000D+03  .747763895071D+00 -.814569644381D-08
     .511449875369D-09  .100000000000D+01  .164900000000D+04  .000000000000D+00
     .240000000000D+01  .000000000000D+00 -.651925802231D-08  .190000000000D+02
     .504060000000D+05  .400000000000D+01
 5 11  8 14 16  0  0.0 -.203840900213D-03 -.545696821064D-11  .000000000000D+00
     .700000000000D+02 -.134687500000D+02  .505521056981D-08  .135055684071D+01
    -.620260834694D-06  .231586780865D-02  .386498868465D-05  .515372257042D+04
     .576000000000D+05 -.596046447754D-07 -.132544202781D+01  .260770320892D-07
     .952999706503D+00  .300531250000D+03  .149827091368D+00 -.842999400023D-08
    -.950039572962D-10  .100000000000D+01  .164900000000D+04  .000000000000D+00
     .240000000000D+01  .000000000000D+00 -.102445483208D-07  .700000000000D+02
     .504060000000D+05  .400000000000D+01
 6 11  8 14 16  0  0.0 -.968161039054D-04  .103455022327D-10  .000000000000D+00
     .440000000000D+02 -.945312500000D+02  .493520557112D-08  .147451781712D+01
    -.489130616188D-05  .672509078868D-02  .889226794243D-05  .515364107704D+04
     .576000000000D+05  .894069671631D-07  .281076221635D+01  .391155481339D-07
     .936793950600D+00  .188750000000D+03 -.714138190516D+00 -.822212819893D-08
    -.445375694543D-09  .100000000000D+01  .164900000000D+04  .000000000000D+00
     .240000000000D+01  .000000000000D+00 -.465661287308D-08  .440000000000D+02
     .504060000000D+05  .400000000000D+01
 7 11  8 14 16  0  0.0  .220392830670D-04  .170530256582D-11  .000000000000D+00
     .580000000000D+02  .106812500000D+03  .426053461123D-08 -.218033410744D+01
     .539980828762D-05  .485042540822D-02  .854209065437D-05  .515364476204D+04
     .576000000000D+05 -.279396772385D-07  .780566699428D+00 -.521540641785D-07
     .974971542312D+00  .227406250000D+03 -.311117485482D+01 -.792640159501D-08
     .480019994760D-09  .100000000000D+01  .164900000000D+04  .000000000000D+00
     .240000000000D+01  .000000000000D+00 -.107102096081D-07  .580000000000D+02
     .504060000000D+05  .400000000000D+01
 9 11  8 14 16  0  0.0  .991728156805D-04  .238742359215D-11  .000000000000D+00
     .580000000000D+02  .112187500000D+03  .398516599816D-08 -.290323448968D+01
     .566989183426D-05  .173723365879D-01  .892579555511D-05  .515366588020D+04
     .576000000000D+05  .320374965668D-06  .752711479626D+00  .100582838058D-06
     .983869369948D+00  .215062500000D+03  .159463770900D+01 -.758960185167D-08
     .522164607395D-09  .100000000000D+01  .164900000000D+04  .000000000000D+00
     .340000000000D+01  .000000000000D+00 -.558793544769D-08  .580000000000D+02
     .504060000000D+05  .400000000000D+01
10 11  8 14 16  0  0.0 -.992696732283D-05 -.113686837722D-11  .000000000000D+00
     .160000000000D+02 -.150625000000D+02  .524879006175D-08  .156602390181D+01
    -.840052962303D-06  .103040186223D-01  .403076410294D-05  .515361887932D+04
     .576000000000D+05 -.175088644028D-06 -.130219991829D+01  .651925802231D-07
     .947938385919D+00  .296375000000D+03  .704898569626D+00 -.861714465295D-08
    -.180721813503D-09  .100000000000D+01  .164900000000D+04  .000000000000D+00
     .240000000000D+01  .000000000000D+00 -.232830643654D-08  .160000000000D+02
     .504060000000D+05  .400000000000D+01
11 11  8 14 16  0  0.0 -.176902394742D-03 -.329691829393D-11  .000000000000D+00
     .670000000000D+02  .348750000000D+02  .581559938591D-08 -.202758640253D+01
     .174343585968D-05  .120683331043D-01  .102315098047D-04  .515367152214D+04
     .576000000000D+05  .108033418655D-06 -.262930606954D+01 -.169500708580D-06
     .888236805897D+00  .142593750000D+03  .954639800054D+00 -.838856370306D-08
     .379301513716D-09  .100000000000D+01  .164900000000D+04  .000000000000D+00
     .340000000000D+01  .000000000000D+00 -.116415321827D-07  .670000000000D+02
     .504060000000D+05  .400000000000D+01
12 11  8 14 16  0  0.0  .157984904945D-04  .250111042988D-11  .000000000000D+00
     .590000000000D+02 -.241562500000D+02  .467662337156D-08 -.239724457129D+01
    -.132806599140D-05  .360852736048D-02  .206381082535D-05  .515368617630D+04
     .576000000000D+05 -.145286321640D-06  .183619292531D+01 -.670552253723D-07
     .975914175040D+00  .345593750000D+03 -.854569301384D-01 -.838177770611D-08
    -.164292557730D-09  .100000000000D+01  .164900000000D+04  .000000000000D+00
     .240000000000D+01  .000000000000D+00 -.121071934700D-07  .590000000000D+02
     .504060000000D+05  .400000000000D+01
13 11  8 14 16  0  0.0  .256405677646D-03 -.181898940355D-11  .000000000000D+00
     .520000000000D+02 -.325000000000D+01  .369265381385D-08  .276026724501D+00
    -.348314642906D-06  .466395379044D-02  .114440917969D-04  .515356274033D+04
     .576000000000D+05 -.111758708954D-07 -.192758663595D+00 -.931322574615D-08
     .989211734651D+00  .171562500000D+03  .191897622929D+01 -.761710299720D-08
    -.254296306748D-09  .100000000000D+01  .164900000000D+04  .000000000000D+00
     .340000000000D+01  .000000000000D+00 -.111758708954D-07  .520000000000D+02
     .504060000000D+05  .400000000000D+01
